COSMOS 1048             
1 11111U 78105A   24124.97087258  .00000233  00000+0  91427-4 0  9999
2 11111  74.0258 314.9397 0017309 256.1270 103.7956 14.34716980377340
